#cP2015 10  2  0  0  0.00000000      96 ORBIT IGb08 HLM  IGS
## 1864 432000.00000000   900.00000000 57297 0.0000000000000
+   32   G01G02G03G04G05G06G07G08G09G10G11G12G13G14G15G16G17
+        G18G19G20G21G22G23G24G25G26G27G28G29G30G31G32  0  0
+          0  0  0  0  0  0  0  0  0  0  0  0  0  0  0  0  0
+          0  0  0  0  0  0  0  0  0  0  0  0  0  0  0  0  0
+          0  0  0  0  0  0  0  0  0  0  0  0  0  0  0  0  0
++         2  2  2  2  2  2  2  2  2  3  2  2  2  2  2  2  2
++         2  2  2  2  2  2  2  2  3  2  2  2  2  2  3  0  0
++         0  0  0  0  0  0  0  0  0  0  0  0  0  0  0  0  0
++         0  0  0  0  0  0  0  0  0  0  0  0  0  0  0  0  0
++         0  0  0  0  0  0  0  0  0  0  0  0  0  0  0  0  0
%c G  cc GPS ccc cccc cccc cccc cccc ccccc ccccc ccccc ccccc
%c cc cc ccc ccc cccc cccc cccc cccc ccccc ccccc ccccc ccccc
%f  1.2500000  1.025000000  0.00000000000  0.000000000000000
%f  0.0000000  0.000000000  0.00000000000  0.000000000000000
%i    0    0    0    0      0      0      0      0         0
%i    0    0    0    0      0      0      0      0         0
/* FINAL ORBIT COMBINATION FROM WEIGHTED AVERAGE OF:        
/* cod emr esa gfz grg jpl mit ngs sio                      
/* REFERENCED TO IGS TIME (IGST) AND TO WEIGHTED MEAN POLE: 
/* PCV:IGS08_1864 OL/AL:FES2004  NONE     Y  ORB:CMB CLK:CMB
*  2015 10  2  6 45  0.00000000
PG01 -19308.068580 -13632.313944 -12387.849865      1.565946  3  8  1 104       
PG02  -3617.299788  15400.729625  21712.771712    591.205296  5  7  6  64       
PG03 -13292.989942 -20824.861556   9724.746624     21.076646  5  7  4 108       
PG04 -10606.582561 -16231.045148 -18611.048685    -27.199099  6  8  4  79       
PG05    744.787421  24812.096757   9112.347153   -189.428180  4 10  4  88       
PG06 -16734.725442   9226.735208  18438.677147     68.995285  5  5  4  98       
PG07 -26077.737502  -5849.442929  -1513.712818    483.729391  5  4  5  81       
PG08  -2258.940054 -17678.250607 -19652.198613     -7.285736  4  7  5 115       
PG09 -18911.572023    973.794995  18624.708539     -5.974829  4     5  89       
PG10  10918.688310 -22603.794236  -7935.214920      1.617329  7  8  7 114       
PG11 -15477.052832 -12733.694211 -18020.083708   -607.703252  6  9  4  92       
PG12  10738.842859  23200.834460   7488.481597    333.220538  6 10  3 106       
PG13  -8445.500758  20429.738077 -14934.192823   -153.575607  6 10  5  99       
PG14  21631.210119 -13866.914159  -6147.799905     30.804053  5  7  4 100       
PG15   4616.099390  17163.843947 -19741.206126   -274.659491  2  9  3 104       
PG16    923.633254 -24517.780857   9600.074534    -80.682782  5  8  9 109       
PG17 -21013.883486  14883.908071  -5722.761614   -189.645947  7  5  3  89       
PG18  16872.225439   4004.680191 -19678.208425    439.071817  3  5  4 115       
PG19 -12178.441837  -9312.591859 -21961.269016   -520.954505  7  5  7 104       
PG20  13374.711832  22110.953352  -6109.721927    359.863832  4 10  3 106       
PG21  26202.585465   2889.858798  -3732.354908   -483.837940  4  6  3 120       
PG22  12547.649600 -11145.616586 -20316.680686    396.877033  4  6  5 110       
PG23 -10509.693643 -11531.079450  21648.530982   -136.508924  7  7  6 108       
PG24  17110.321412  14357.286985 -14525.345586     -5.642196  4  7  5 100       
PG25  15804.534278  12640.190886  17187.962977    -46.648155  7  5  6 100       
PG26   7138.222176 -18661.186300  17494.203290    -70.447102  7  8  6 109       
PG27   8973.937852 -21776.961987 -12181.444356     24.215944  5  7  4  99       
PG28 -13098.947232   6409.608553 -21569.290485    471.531342  1  3  4 100       
PG29  17365.665272   2220.133532  19974.827539    637.395287  7  4  7  92       
PG30 -23602.429871   1553.904437 -12165.220200     34.269947  3  4  5  95       
PG31  16465.187608  -8940.761904  19087.296979    300.751808  5  5  6  99       
PG32  -4813.072811 -26404.775961  -1053.778052    -26.604307  7 11  8 149       
*  2015 10  2  7  0  0.00000000
PG01 -17775.901518 -13494.169677 -14623.963219      1.566615  3  8  1 105       
PG02  -5974.989976  14957.515117  21457.364906    591.206558  5  6  6 103       
PG03 -13369.159168 -21813.638229   7092.741896     21.076174  5  7  4 105       
PG04  -8484.620703 -15963.169086 -19887.890388    -27.203075  6  8  4  76       
PG05     96.611290  23764.423120  11598.742670   -189.424681  4 10  5 105       
PG06 -18679.617998   8681.713375  16758.755201     69.001718  5  5  4 102       
PG07 -26055.165166  -6052.418518   1334.647928    483.728560  5  5  5 103       
PG08   -727.944455 -19231.938819 -18264.789790     -7.286815  5  7  5 122       
PG09 -17547.371548   -765.859158  19922.552791     -5.972252  4  2  5 114       
PG10  11619.928917 -23024.513994  -5209.582388      1.618311  7  8  7 127       
PG11 -13473.022773 -13228.742132 -19260.959949   -607.705506  6  9  4  97       
PG12  10784.231405  23918.888549   4699.135350    333.223772  6 11  1  86       
PG13  -9708.487821  21351.253809 -12699.191464   -153.578133  7 10  5  99       
PG14  21159.374501 -13072.260981  -8845.345838     30.802003  6  7  5  92       
PG15   3125.393378  18773.229571 -18494.159706   -274.661295  4 10  3 100       
PG16   1409.528957 -23338.313287  12155.711848    -80.679337  6  8  9 121       
PG17 -20584.390524  14113.979526  -8459.490125   -189.646595  7  4  3  87       
PG18  17517.708725   6207.744171 -18564.716109    439.075231  3  5  5 100       
PG19 -10372.741978 -10989.849655 -22075.938561   -520.954965  8  6  7 121       
PG20  13260.307677  22734.846872  -3390.119112    359.866811  5 10  2  53       
PG21  26484.922221   3254.875240   -965.185874   -483.840102  5  6  4 100       
PG22  13441.635935  -8894.249903 -20857.992048    396.880249  3  6  4 104       
PG23  -8856.564355 -13314.311914  21321.183652   -136.510764  7  8  6 123       
PG24  15340.108857  14217.282356 -16496.023036     -5.641996  5  7  5  95       
PG25  16268.177222  14449.392554  15244.925983    -46.652989  7  4  6 126       
PG26   7939.094437 -16724.705982  19039.860409    -70.458196  7  8  6 122       
PG27   9957.156911 -22577.481691  -9690.171229     24.218633  5  7  5 117       
PG28 -13758.557532   3884.367413 -21762.163344    471.533596  1  3  3 112       
PG29  15777.101025   3939.249843  21005.075078    637.396973  7  4  6 118       
PG30 -24743.759515    993.467348  -9716.300481     34.275705  3  4  5 123       
PG31  18440.099977  -8363.205103  17494.464074    300.750596  5  6  6 110       
PG32  -4505.945524 -26201.937532  -3833.025066    -26.593857  7 11  8 133       
*  2015 10  2  7 15  0.00000000
PG01 -16002.954379 -13401.955224 -16611.828276      1.567249  4  8  1 101       
PG02  -8308.674137  14636.984997  20843.743958    591.207776  5  5  5  92       
PG03 -13383.198036 -22513.978343   4338.516508     21.075645  5  8  4 114       
PG04  -6228.838494 -15786.239007 -20834.414070    -27.206978  6  7  4  99       
PG05   -704.839728  22499.361533  13882.886726   -189.420976  5  9  5 104       
PG06 -20445.824133   8268.273826  14790.259983     69.008144  5  4  4  92       
PG07 -25729.933567  -6202.562291   4160.611705    483.727606  6  6  5  63       
PG08    612.280168 -20724.706516 -16562.111262     -7.287886  5  7  5 127       
PG09 -16196.073964  -2674.082641  20877.552166     -5.969643  3  3  5 103       
PG10  12124.988144 -23215.465546  -2391.735489      1.619503  7  8  7 111       
PG11 -11377.489425 -13832.497478 -20185.324565   -607.707595  6  9  5 117       
PG12  10766.366631  24330.234632   1829.754046    333.226184  6 11  1 100       
PG13 -10734.862398  22151.788094 -10248.374260   -153.580644  7  9  6  77       
PG14  20527.793819 -12031.908337 -11387.815789     30.799524  7  7  5  83       
PG15   1801.867948  20324.052590 -16928.061388   -274.663128  5 10  4 114       
PG16   2047.275593 -21921.362901  14497.169259    -80.676040  6  8  9 115       
PG17 -19998.291581  13089.062284 -11047.150598   -189.648106  6  4  3  99       
PG18  18204.939108   8239.429209 -17121.030093    439.078385  3  6  5 117       
PG19  -8663.403746 -12760.108243 -21818.886876   -520.955777  8  6  8 110       
PG20  13037.917140  23085.858288   -612.028323    359.868975  6 10  1 102       
PG21  26476.074455   3560.761517   1818.401973   -483.843074  6  7  4  92       
PG22  14452.070898  -6649.561480 -21032.180742    396.883343  3  7  4  95       
PG23  -7327.529884 -15136.909777  20630.719528   -136.512587  7  8  6 112       
PG24  13359.740888  14142.108655 -18185.284246     -5.641797  5  7  4 104       
PG25  16743.234198  16010.320860  13039.747392    -46.657797  7  5  6 128       
PG26   8898.447550 -14687.609540  20257.757519    -70.469323  7  8  6 121       
PG27  10717.232158 -23198.454226  -7031.182311     24.221320  4  7  5 104       
PG28 -14555.041471   1400.517359 -21557.678137    471.535359     3  3 111       
PG29  14220.932750   5814.161035  21674.047404    637.398747  7  5  6 115       
PG30 -25632.880407    553.713827  -7100.931631     34.281411  3  4  5 116       
PG31  20250.113534  -7929.468952  15607.209772    300.749350  5  6  6 106       
PG32  -4098.274213 -25722.265168  -6548.485968    -26.583629  7 10  8 150       
EOF
